NAVSTAR 77 (USA 289)    
1 43873U 18109A   24246.11352657  .00000008  00000+0  00000+0 0  9998
2 43873  55.3244 117.9871 0030181 192.4391 340.1492  2.00559435 41973
